NORAD_CAT_ID,OBJECT_NAME,OBJECT_TYPE,EPOCH,MEAN_MOTION,ECCENTRICITY,INCLINATION,RA_OF_ASC_NODE,ARG_OF_PERICENTER,MEAN_ANOMALY,BSTAR,MEAN_MOTION_DOT,MEAN_MOTION_DDOT,TLE_LINE0,TLE_LINE1,TLE_LINE2,SEMIMAJOR_AXIS,PERIOD,APOGEE,PERIGEE,DECAYED
53894.0,STARLINK-5043,PAYLOAD,2023-02-11 01:11:50,15.08845239,8.7e-05,53.2193,323.8788,110.283,249.8256,0.00018151,2.603e-05,0.0,0 STARLINK-5043,1 53894U 22119J   23042.04988484  .00002603  00000-0  18151-3 0  9990,2 53894  53.2193 323.8788 0000870 110.2830 249.8256 15.08845239 21782,6917.864,95.437,540.331,539.128,0.0
53894.0,STARLINK-5043,PAYLOAD,2023-02-11 18:41:06,15.08828396,9.59e-05,53.2191,320.6093,36.5837,323.522,-4.7697e-05,-1.046e-05,0.0,0 STARLINK-5043,1 53894U 22119J   23042.77854188 -.00001046  00000-0 -47697-4 0  9993,2 53894  53.2191 320.6093 0000959  36.5837 323.5220 15.08828396 21897,6917.916,95.438,540.444,539.117,0.0
53894.0,STARLINK-5043,PAYLOAD,2023-02-11 20:16:29,15.08830755,0.0001452,53.2186,320.3143,44.0397,316.071,-2.4225e-05,-6.73e-06,0.0,0 STARLINK-5043,1 53894U 22119J   23042.84478131 -.00000673  00000-0 -24225-4 0  9998,2 53894  53.2186 320.3143 0001452  44.0397 316.0710 15.08830755 22320,6917.909,95.438,540.778,538.769,0.0
53894.0,STARLINK-5043,PAYLOAD,2023-02-13 02:28:49,15.08835259,0.0001053,53.2185,314.6605,90.5226,269.5887,-0.00014191,-2.545e-05,0.0,0 STARLINK-5043,1 53894U 22119J   23044.10334873 -.00002545  00000-0 -14191-3 0  9993,2 53894  53.2185 314.6605 0001053  90.5226 269.5887 15.08835259 22097,6917.895,95.438,540.488,539.031,0.0
53894.0,STARLINK-5043,PAYLOAD,2023-02-13 10:25:44,15.08840208,0.0001101,53.2187,313.1742,92.8375,267.2743,-0.00011713,-2.151e-05,0.0,0 STARLINK-5043,1 53894U 22119J   23044.43454610 -.00002151  00000-0 -11713-3 0  9991,2 53894  53.2187 313.1742 0001101  92.8375 267.2743 15.08840208 22567,6917.88,95.438,540.506,538.983,0.0
53894.0,STARLINK-5043,PAYLOAD,2023-02-14 00:44:12,15.08846193,9.83e-05,53.2181,310.499,67.3386,292.771,0.00032166,4.836e-05,0.0,0 STARLINK-5043,1 53894U 22119J   23045.03069639  .00004836  00000-0  32166-3 0  9996,2 53894  53.2181 310.4990 0000983  67.3386 292.7710 15.08846193 22232,6917.861,95.437,540.406,539.046,0.0
53894.0,STARLINK-5043,PAYLOAD,2023-02-14 10:16:31,15.08849826,5.96e-05,53.2176,308.7146,40.2862,319.8174,0.00026196,3.885e-05,0.0,0 STARLINK-5043,1 53894U 22119J   23045.42813826  .00003885  00000-0  26196-3 0  9993,2 53894  53.2176 308.7146 0000596  40.2862 319.8174 15.08849826 22712,6917.85,95.437,540.128,539.303,0.0
53894.0,STARLINK-5043,PAYLOAD,2023-02-14 16:38:05,15.088305,0.0001578,53.2187,307.5237,84.6674,275.4499,0.00016122,2.278e-05,0.0,0 STARLINK-5043,1 53894U 22119J   23045.69311694  .00002278  00000-0  16122-3 0  9991,2 53894  53.2187 307.5237 0001578  84.6674 275.4499 15.08830500 22330,6917.909,95.438,540.866,538.683,0.0
53894.0,STARLINK-5043,PAYLOAD,2023-02-15 00:35:00,15.08840918,0.0001069,53.2185,306.0367,96.9545,263.1569,0.0002251,3.297e-05,0.0,0 STARLINK-5043,1 53894U 22119J   23046.02430812  .00003297  00000-0  22510-3 0  9993,2 53894  53.2185 306.0367 0001069  96.9545 263.1569 15.08840918 22385,6917.878,95.437,540.482,539.003,0.0
53894.0,STARLINK-5043,PAYLOAD,2023-02-15 10:07:18,15.08844954,0.0001139,53.2186,304.253,72.0926,288.019,0.00022276,3.26e-05,0.0,0 STARLINK-5043,1 53894U 22119J   23046.42174697  .00003260  00000-0  22276-3 0  9992,2 53894  53.2186 304.2530 0001139  72.0926 288.0190 15.08844954 22867,6917.865,95.437,540.518,538.942,0.0
53894.0,STARLINK-5043,PAYLOAD,2023-02-15 16:28:52,15.08840817,0.0001498,53.2165,303.0637,72.0341,288.0815,0.00010335,1.357e-05,0.0,0 STARLINK-5043,1 53894U 22119J   23046.68671310  .00001357  00000-0  10335-3 0  9992,2 53894  53.2165 303.0637 0001498  72.0341 288.0815 15.08840817 22484,6917.878,95.438,540.779,538.707,0.0
53894.0,STARLINK-5043,PAYLOAD,2023-02-15 21:15:00,15.08850122,0.000172,53.2173,302.173,77.8044,282.3141,0.00011119,1.482e-05,0.0,0 STARLINK-5043,1 53894U 22119J   23046.88542696  .00001482  00000-0  11119-3 0  9998,2 53894  53.2173 302.1730 0001720  77.8044 282.3141 15.08850122 22937,6917.849,95.437,540.904,538.525,0.0
53894.0,STARLINK-5043,PAYLOAD,2023-02-16 00:25:45,15.08870531,0.0001291,53.2179,301.5748,75.2509,284.8626,0.00010843,1.44e-05,0.0,0 STARLINK-5043,1 53894U 22119J   23047.01789073  .00001440  00000-0  10843-3 0  9993,2 53894  53.2179 301.5748 0001291  75.2509 284.8626 15.08870531 22533,6917.787,95.436,540.545,538.759,0.0
53894.0,STARLINK-5043,PAYLOAD,2023-02-16 09:58:05,15.08843464,0.0001616,53.2181,299.7941,87.2981,272.8196,0.00013123,1.801e-05,0.0,0 STARLINK-5043,1 53894U 22119J   23047.41534673  .00001801  00000-0  13123-3 0  9996,2 53894  53.2181 299.7941 0001616  87.2981 272.8196 15.08843464 22597,6917.87,95.437,540.853,538.617,0.0
53894.0,STARLINK-5043,PAYLOAD,2023-02-17 01:51:56,15.08850749,0.0001228,53.2169,296.8182,83.387,276.7262,8.4552e-05,1.058e-05,0.0,0 STARLINK-5043,1 53894U 22119J   23048.07774298  .00001058  00000-0  84552-4 0  9997,2 53894  53.2169 296.8182 0001228  83.3870 276.7262 15.08850749 23111,6917.848,95.437,540.562,538.863,0.0
53894.0,STARLINK-5043,PAYLOAD,2023-02-17 20:56:36,15.08830673,0.0001585,53.2171,293.2526,77.7255,282.3915,-4.2825e-05,-9.69e-06,0.0,0 STARLINK-5043,1 53894U 22119J   23048.87264224 -.00000969  00000-0 -42825-4 0  9997,2 53894  53.2171 293.2526 0001585  77.7255 282.3915 15.08830673 23232,6917.909,95.438,540.87,538.677,0.0
53894.0,STARLINK-5043,PAYLOAD,2023-02-17 22:31:59,15.08838044,0.000121,53.2183,292.9516,87.6543,272.4588,-0.00013387,-2.418e-05,0.0,0 STARLINK-5043,1 53894U 22119J   23048.93887910 -.00002418  00000-0 -13387-3 0  9998,2 53894  53.2183 292.9516 0001210  87.6543 272.4588 15.08838044 22825,6917.886,95.438,540.588,538.914,0.0
53894.0,STARLINK-5043,PAYLOAD,2023-02-18 09:39:40,15.08849527,0.00013,53.2186,290.8694,95.4143,264.6997,-0.00013418,-2.423e-05,0.0,0 STARLINK-5043,1 53894U 22119J   23049.40255045 -.00002423  00000-0 -13418-3 0  9990,2 53894  53.2186 290.8694 0001300  95.4143 264.6997 15.08849527 22897,6917.851,95.437,540.616,538.817,0.0
53894.0,STARLINK-5043,PAYLOAD,2023-02-18 22:22:45,15.08843838,0.0001144,53.2171,288.493,88.6782,271.4341,0.00023776,3.499e-05,0.0,0 STARLINK-5043,1 53894U 22119J   23049.93246789  .00003499  00000-0  23776-3 0  9993,2 53894  53.2171 288.4930 0001144  88.6782 271.4341 15.08843838 23390,6917.869,95.437,540.525,538.942,0.0
53894.0,STARLINK-5043,PAYLOAD,2023-02-19 19:02:46,15.08837477,0.0001097,53.2171,284.6274,97.687,262.4247,0.00010113,1.322e-05,0.0,0 STARLINK-5043,1 53894U 22119J   23050.79359653  .00001322  00000-0  10113-3 0  9998,2 53894  53.2171 284.6274 0001097  97.6870 262.4247 15.08837477 23100,6917.888,95.438,540.512,538.994,0.0
53894.0,STARLINK-5043,PAYLOAD,2023-02-19 22:13:32,15.08841745,0.0001142,53.2176,284.0347,69.784,290.3274,9.1352e-05,1.166e-05,0.0,0 STARLINK-5043,1 53894U 22119J   23050.92607519  .00001166  00000-0  91352-4 0  9991,2 53894  53.2176 284.0347 0001142  69.7840 290.3274 15.08841745 23549,6917.875,95.437,540.53,538.95,0.0
53894.0,STARLINK-5043,PAYLOAD,2023-02-20 18:53:33,15.08848373,0.0001173,53.2171,280.1661,80.0064,280.106,1.9923e-05,2.9e-07,0.0,0 STARLINK-5043,1 53894U 22119J   23051.78719020  .00000029  00000-0  19923-4 0  9998,2 53894  53.2171 280.1661 0001173  80.0064 280.1060 15.08848373 23250,6917.855,95.437,540.531,538.908,0.0
53894.0,STARLINK-5043,PAYLOAD,2023-02-21 01:15:05,15.08854913,0.0001114,53.2167,278.9765,75.9509,284.1607,6.0809e-05,6.8e-06,0.0,0 STARLINK-5043,1 53894U 22119J   23052.05214301  .00000680  00000-0  60809-4 0  9993,2 53894  53.2167 278.9765 0001114  75.9509 284.1607 15.08854913 23299,6917.835,95.437,540.47,538.929,0.0
53894.0,STARLINK-5043,PAYLOAD,2023-02-21 07:36:38,15.08849048,0.0001082,53.2163,277.7857,68.6983,291.4125,1.7382e-05,-1.1e-07,0.0,0 STARLINK-5043,1 53894U 22119J   23052.31710687 -.00000011  00000-0  17382-4 0  9997,2 53894  53.2163 277.7857 0001082  68.6983 291.4125 15.08849048 23337,6917.853,95.437,540.466,538.969,0.0
53894.0,STARLINK-5043,PAYLOAD,2023-02-21 18:44:20,15.08839858,0.0001169,53.2165,275.7046,64.3648,295.7465,3.4438e-05,2.6e-06,0.0,0 STARLINK-5043,1 53894U 22119J   23052.78079164  .00000260  00000-0  34438-4 0  9992,2 53894  53.2165 275.7046 0001169  64.3648 295.7465 15.08839858 23404,6917.881,95.438,540.555,538.937,0.0
53894.0,STARLINK-5043,PAYLOAD,2023-02-21 21:55:06,15.08845195,0.0001121,53.2168,275.1112,73.7362,286.3754,8.582e-05,1.078e-05,0.0,0 STARLINK-5043,1 53894U 22119J   23052.91326689  .00001078  00000-0  85820-4 0  9993,2 53894  53.2168 275.1112 0001121  73.7362 286.3754 15.08845195 23846,6917.865,95.437,540.505,538.954,0.0
53894.0,STARLINK-5043,PAYLOAD,2023-02-22 01:05:52,15.0884628,0.0001128,53.2167,274.5162,72.2368,287.8747,9.4169e-05,1.211e-05,0.0,0 STARLINK-5043,1 53894U 22119J   23053.04574584  .00001211  00000-0  94169-4 0  9992,2 53894  53.2167 274.5162 0001128  72.2368 287.8747 15.08846280 23440,6917.861,95.437,540.507,538.946,0.0
53894.0,STARLINK-5043,PAYLOAD,2023-02-22 21:45:51,15.08859581,0.0001115,53.217,270.6504,73.5092,286.6022,0.00010131,1.326e-05,0.0,0 STARLINK-5043,1 53894U 22119J   23053.90685069  .00001326  00000-0  10131-3 0  9991,2 53894  53.2170 270.6504 0001115  73.5092 286.6022 15.08859581 23996,6917.821,95.436,540.457,538.914,0.0
53894.0,STARLINK-5043,PAYLOAD,2023-02-22 23:21:15,15.08855551,7.57e-05,53.2174,270.3533,63.3113,296.7957,5.4628e-05,5.82e-06,0.0,0 STARLINK-5043,1 53894U 22119J   23053.97309271  .00000582  00000-0  54628-4 0  9999,2 53894  53.2174 270.3533 0000757  63.3113 296.7957 15.08855551 23588,6917.833,95.437,540.222,539.174,0.0
53894.0,STARLINK-5043,PAYLOAD,2023-02-23 13:39:45,15.08829424,0.0001128,53.2163,267.6767,75.6619,284.4498,-1.9707e-05,-6.01e-06,0.0,0 STARLINK-5043,1 53894U 22119J   23054.56927172 -.00000601  00000-0 -19707-4 0  9994,2 53894  53.2163 267.6767 0001128  75.6619 284.4498 15.08829424 24095,6917.913,95.438,540.558,538.997,0.0
